     2.100          NAVIGATION                              RINEX VERSION / TYPE
fic2rin                                 09/23/2016 00:42:06 PGM / RUN BY / DATE
                                                            END OF HEADER
18 16  9 22 10  0  0.0  .560110900551D-03  .363797880709D-11  .000000000000D+00
     .210000000000D+02 -.195312500000D+02  .534557980771D-08  .253428469218D+01
    -.108592212200D-05  .172647050349D-01  .637210905552D-05  .515371229744D+04
     .381600000000D+06  .152736902237D-06  .299763036715D+01 -.167638063431D-06
     .925516105929D+00  .232812500000D+03 -.185903889709D+01 -.820748473183D-08
    -.162149611325D-09  .100000000000D+01  .191500000000D+04  .000000000000D+00
     .240000000000D+01  .000000000000D+00 -.111758708954D-07  .210000000000D+02
     .374406000000D+06  .400000000000D+01
19 16  9 22 10  0  0.0 -.522735528648D-03  .568434188608D-12  .000000000000D+00
     .990000000000D+02 -.688125000000D+02  .419517474587D-08 -.219238289823D+01
    -.355951488018D-05  .105124890106D-01  .869482755661D-05  .515363494682D+04
     .381600000000D+06  .171363353729D-06  .103400972263D+01 -.447034835815D-07
     .974611379196D+00  .217218750000D+03  .866208314196D+00 -.782282585210D-08
     .107147320259D-09  .100000000000D+01  .191500000000D+04  .000000000000D+00
     .240000000000D+01  .000000000000D+00 -.149011611938D-07  .990000000000D+02
     .374406000000D+06  .400000000000D+01
20 16  9 22 10  0  0.0  .436952803284D-03  .204636307899D-11  .000000000000D+00
     .560000000000D+02 -.109687500000D+02  .545772733625D-08  .964671617416D-01
    -.365078449249D-06  .464994518552D-02  .679492950439D-05  .515358056068D+04
     .381600000000D+06 -.115483999252D-06  .294600810771D+01  .186264514923D-08
     .926796618605D+00  .232437500000D+03  .144222390052D+01 -.859714381983D-08
    -.925038531568D-10  .100000000000D+01  .191500000000D+04  .000000000000D+00
     .240000000000D+01  .000000000000D+00 -.838190317154D-08  .560000000000D+02
     .374406000000D+06  .400000000000D+01
21 16  9 22 10  0  0.0 -.532194506377D-03 -.341060513165D-12  .000000000000D+00
     .320000000000D+02  .309375000000D+01  .496306387439D-08 -.276602747178D+01
     .875443220139D-07  .234048899729D-01  .822171568871D-05  .515354556084D+04
     .381600000000D+06  .251457095146D-06  .195608405631D+01 -.372529029846D-08
     .937161450250D+00  .203468750000D+03 -.175812073249D+01 -.787782814316D-08
     .346085844436D-09  .100000000000D+01  .191500000000D+04  .000000000000D+00
     .240000000000D+01  .000000000000D+00 -.977888703346D-08  .320000000000D+02
     .374406000000D+06  .400000000000D+01
23 16  9 22 10  0  0.0 -.190793070942D-03 -.136424205266D-11  .000000000000D+00
     .700000000000D+02  .340937500000D+02  .478591363823D-08 -.301931928631D+00
     .189803540707D-05  .111524100648D-01  .103153288364D-04  .515361424828D+04
     .381600000000D+06  .111758708954D-06 -.220621932664D+01  .108033418655D-06
     .945453170445D+00  .173062500000D+03 -.253058742567D+01 -.830998900154D-08
    -.197151069276D-09  .100000000000D+01  .191500000000D+04  .000000000000D+00
     .240000000000D+01  .000000000000D+00 -.200234353542D-07  .700000000000D+02
     .374406000000D+06  .400000000000D+01
24 16  9 22 10  0  0.0 -.235298648477D-04 -.568434188608D-12  .000000000000D+00
     .500000000000D+02  .700937500000D+02  .486698844389D-08 -.842684202345D+00
     .372715294361D-05  .466406310443D-02  .644288957119D-05  .515373095894D+04
     .381600000000D+06  .912696123123D-07 -.118074642297D+01 -.111758708954D-07
     .947876906786D+00  .248125000000D+03  .394747523962D+00 -.837892044424D-08
     .159649507186D-09  .100000000000D+01  .191500000000D+04  .000000000000D+00
     .240000000000D+01  .000000000000D+00  .232830643654D-08  .500000000000D+02
     .374406000000D+06  .400000000000D+01
26 16  9 22 10  0  0.0 -.474109314382D-03 -.693489710102D-11  .000000000000D+00
     .470000000000D+02 -.280937500000D+02  .489841832450D-08  .287523217200D+01
    -.132247805595D-05  .988107640296D-03  .371597707272D-05  .515358130264D+04
     .381600000000D+06 -.130385160446D-06 -.116311330960D+00 -.931322574615D-08
     .960386822526D+00  .306968750000D+03 -.106078352121D+00 -.845178062202D-08
    -.260725145963D-10  .100000000000D+01  .191500000000D+04  .000000000000D+00
     .240000000000D+01  .000000000000D+00  .698491930962D-08  .470000000000D+02
     .374406000000D+06  .400000000000D+01
27 16  9 22 10  0  0.0  .142414588481D-03  .488853402203D-11  .000000000000D+00
     .160000000000D+02 -.753125000000D+02  .426160608443D-08  .983823931713D+00
    -.376068055630D-05  .382676918525D-02  .955350697041D-05  .515365796471D+04
     .381600000000D+06  .633299350739D-07  .934961433582D+00  .316649675369D-07
     .972457377153D+00  .197750000000D+03  .344282447352D+00 -.803712049261D-08
    -.124648049234D-09  .100000000000D+01  .191500000000D+04  .000000000000D+00
     .240000000000D+01  .000000000000D+00  .186264514923D-08  .160000000000D+02
     .374406000000D+06  .400000000000D+01
28 16  9 22 10  0  0.0  .553866382688D-03  .272848410532D-11  .000000000000D+00
     .760000000000D+02 -.288437500000D+02  .406374069968D-08  .183358622180D+01
    -.187754631042D-05  .198933583451D-01  .405125319958D-05  .515363385773D+04
     .381600000000D+06  .188127160072D-06 -.293705103482D-01 -.346451997757D-06
     .989612236270D+00  .316718750000D+03 -.161151732740D+01 -.792783022595D-08
    -.946467995620D-10  .100000000000D+01  .191500000000D+04  .000000000000D+00
     .340000000000D+01  .000000000000D+00 -.107102096081D-07  .760000000000D+02
     .374406000000D+06  .400000000000D+01
29 16  9 22 10  0  0.0  .650156755000D-03 -.113686837722D-11  .000000000000D+00
     .840000000000D+02 -.613125000000D+02  .403766818509D-08  .296885085523D+01
    -.339001417160D-05  .554239959456D-03  .916048884392D-05  .515375023270D+04
     .381600000000D+06 -.372529029846D-07  .995391773560D+00  .260770320892D-07
     .978500327472D+00  .211062500000D+03  .112558208775D+00 -.780853954273D-08
    -.610739725475D-10  .100000000000D+01  .191500000000D+04  .000000000000D+00
     .240000000000D+01  .000000000000D+00 -.102445483208D-07  .840000000000D+02
     .374406000000D+06  .400000000000D+01
30 16  9 22 10  0  0.0  .151347834617D-03  .159161572810D-11  .000000000000D+00
     .150000000000D+02  .875312500000D+02  .481555773017D-08 -.178363147831D+01
     .427290797234D-05  .241694925353D-02  .686384737492D-05  .515377413177D+04
     .381600000000D+06  .279396772385D-07 -.108905320472D+01 -.633299350739D-07
     .950617024032D+00  .243687500000D+03 -.313375739456D+01 -.837213444729D-08
     .240724312848D-09  .100000000000D+01  .191500000000D+04  .000000000000D+00
     .240000000000D+01  .000000000000D+00  .372529029846D-08  .150000000000D+02
     .374406000000D+06  .400000000000D+01
31 16  9 22 10  0  0.0  .246610026807D-03 -.216004991671D-11  .000000000000D+00
     .230000000000D+02  .903437500000D+02  .443839916285D-08 -.197795692717D+01
     .462494790554D-05  .831695401575D-02  .674463808537D-05  .515355857277D+04
     .381600000000D+06 -.124797224998D-06 -.112165247474D+01 -.316649675369D-07
     .969626180091D+00  .260812500000D+03 -.380979555728D+00 -.811855245601D-08
     .266796827444D-09  .100000000000D+01  .191500000000D+04  .000000000000D+00
     .240000000000D+01  .000000000000D+00 -.135041773319D-07  .230000000000D+02
     .374406000000D+06  .400000000000D+01
32 16  9 22 10  0  0.0 -.124908518046D-03 -.146656020661D-10  .000000000000D+00
     .990000000000D+02  .368750000000D+02  .442054127614D-08  .142293330682D+01
     .182725489140D-05  .647178618237D-03  .986643135548D-05  .515364835739D+04
     .381600000000D+06  .186264514923D-08 -.220837528315D+01  .558793544769D-08
     .959105072222D+00  .184343750000D+03 -.236333758270D+01 -.794497379719D-08
    -.174292974288D-09  .100000000000D+01  .191500000000D+04  .000000000000D+00
     .240000000000D+01  .000000000000D+00  .931322574615D-09  .990000000000D+02
     .374406000000D+06  .400000000000D+01
17 16  9 22  9 59 44.0 -.202123541385D-03  .568434188608D-12  .000000000000D+00
     .900000000000D+01 -.734375000000D+02  .416481633846D-08  .963231825146D+00
    -.377558171749D-05  .111868660897D-01  .935979187489D-05  .515375332451D+04
     .381584000000D+06 -.176951289177D-06  .985544253154D+00  .223517417908D-07
     .977489413043D+00  .213625000000D+03 -.192261271009D+01 -.808640825993D-08
    -.971469037013D-10  .100000000000D+01  .191500000000D+04  .000000000000D+00
     .240000000000D+01  .000000000000D+00 -.107102096081D-07  .900000000000D+01
     .374466000000D+06  .400000000000D+01
 8 16  9 22  9 59 44.0 -.327331945300D-04 -.136424205266D-11  .000000000000D+00
     .200000000000D+01 -.856875000000D+02  .443518474325D-08  .178308159228D+01
    -.436790287495D-05  .175017630681D-02  .915676355362D-05  .515375732613D+04
     .381584000000D+06  .279396772385D-07  .931340829832D+00 -.391155481339D-07
     .964361434896D+00  .199593750000D+03 -.101749600053D+01 -.805819279893D-08
    -.126433837905D-09  .100000000000D+01  .191500000000D+04  .000000000000D+00
     .240000000000D+01  .000000000000D+00  .512227416039D-08  .200000000000D+01
     .380916000000D+06  .400000000000D+01
 1 16  9 22  9 59 44.0  .348333269358D-04  .125055521494D-11  .000000000000D+00
     .240000000000D+02 -.105937500000D+02  .447911514455D-08 -.115269601478D+01
    -.566244125366D-06  .591144396458D-02  .874139368534D-05  .515370145988D+04
     .381584000000D+06  .184401869774D-06  .199303541107D+01 -.931322574615D-08
     .965091849412D+00  .214656250000D+03  .552866761234D+00 -.798068957061D-08
     .275725770799D-09  .100000000000D+01  .191500000000D+04  .000000000000D+00
     .240000000000D+01  .000000000000D+00  .512227416039D-08  .240000000000D+02
     .380946000000D+06  .400000000000D+01
